*******************************************************************************
JPL/HORIZONS                189 Phthia (A878 RA)           2023-Sep-04 11:04:54
Rec #:     189 (+COV) Soln.date: 2023-Aug-22_12:39:40   # obs: 8972 (1880-2023)
 
IAU76/J2000 helio. ecliptic osc. elements (au, days, deg., period=Julian yrs):
 
  EPOCH=  2457122.5 ! 2015-Apr-10.00 (TDB)         Residual RMS= .32324
   EC= .03710698280552911  QR= 2.359052429758326   TP= 2457691.7793865046
   OM= 203.4300308941281   W=  168.4886724368093   IN= 5.177468642496091
   A= 2.449963171019527    MA= 213.6845462637471   ADIST= 2.540873912280729
   PER= 3.83484            N= .25701871            ANGMOM= .026906798
   DAN= 2.53891            DDN= 2.36075            L= 11.9644237
   B= 1.0318745            MOID= 1.35883999        TP= 2016-Oct-30.2793865046
 
Asteroid physical parameters (km, seconds, rotational period in hours):
   GM= n.a.                RAD= 19.245             ROTPER= 22.346
   H= 9.44                 G= .150                 B-V= .904
                           ALBEDO= .170            STYP= Sa

ASTEROID comments: 
1: soln ref.= JPL#105, OCC=0
2: source=ORB
*******************************************************************************


*******************************************************************************
Ephemeris / API_USER Mon Sep  4 11:04:54 2023 Pasadena, USA      / Horizons
*******************************************************************************
Target body name: 189 Phthia (A878 RA)            {source: JPL#105}
Center body name: Solar System Barycenter (0)     {source: DE441}
Center-site name: BODY CENTER
*******************************************************************************
Start time      : A.D. 2023-Aug-12 00:00:00.0000 TDB
Stop  time      : A.D. 2023-Aug-13 00:00:00.0000 TDB
Step-size       : 2880 minutes
*******************************************************************************
Center geodetic : 0.0, 0.0, 0.0                   {E-lon(deg),Lat(deg),Alt(km)}
Center cylindric: 0.0, 0.0, 0.0                   {E-lon(deg),Dxy(km),Dz(km)}
Center radii    : (undefined)
Small perturbers: Yes                             {source: SB441-N16}
Output units    : KM-S
Calendar mode   : Mixed Julian/Gregorian
Output type     : GEOMETRIC cartesian states
Output format   : 2 (position and velocity)
Reference frame : Ecliptic of J2000.0
*******************************************************************************
Initial IAU76/J2000 heliocentric ecliptic osculating elements (au, days, deg.):
  EPOCH=  2457122.5 ! 2015-Apr-10.00 (TDB)         Residual RMS= .32324        
   EC= .03710698280552911  QR= 2.359052429758326   TP= 2457691.7793865046      
   OM= 203.4300308941281   W=  168.4886724368093   IN= 5.177468642496091       
  Equivalent ICRF heliocentric cartesian coordinates (au, au/d):
   X=-1.839180533761597E+00  Y=-1.618704103010961E+00  Z=-6.171933594050224E-01
  VX= 7.446646609975720E-03 VY=-7.295677883279867E-03 VZ=-2.185305715537538E-03
Asteroid physical parameters (km, seconds, rotational period in hours):        
   GM= n.a.                RAD= 19.245             ROTPER= 22.346              
   H= 9.44                 G= .150                 B-V= .904                   
                           ALBEDO= .170            STYP= Sa                    
*******************************************************************************
JDTDB
   X     Y     Z
   VX    VY    VZ
*******************************************************************************
$$SOE
2460168.500000000 = A.D. 2023-Aug-12 00:00:00.0000 TDB 
 X = 8.678620997936764E+07 Y =-3.537994020833323E+08 Z = 3.259422089972161E+07
 VX= 1.832293669411744E+01 VY= 5.277489124521141E+00 VZ= 2.173020525136500E-01
$$EOE
*******************************************************************************
 
TIME

  Barycentric Dynamical Time ("TDB" or T_eph) output was requested. This
continuous coordinate time is equivalent to the relativistic proper time
of a clock at rest in a reference frame co-moving with the solar system
barycenter but outside the system's gravity well. It is the independent
variable in the solar system relativistic equations of motion.

  TDB runs at a uniform rate of one SI second per second and is independent
of irregularities in Earth's rotation.
 
CALENDAR SYSTEM

  Mixed calendar mode was active such that calendar dates after AD 1582-Oct-15
(if any) are in the modern Gregorian system. Dates prior to 1582-Oct-5 (if any)
are in the Julian calendar system, which is automatically extended for dates
prior to its adoption on 45-Jan-1 BC.  The Julian calendar is useful for
matching historical dates. The Gregorian calendar more accurately corresponds
to the Earth's orbital motion and seasons. A "Gregorian-only" calendar mode is
available if such physical events are the primary interest.

REFERENCE FRAME AND COORDINATES

  Ecliptic at the standard reference epoch

    Reference epoch: J2000.0
    X-Y plane: adopted Earth orbital plane at the reference epoch
               Note: IAU76 obliquity of 84381.448 arcseconds wrt ICRF X-Y plane
    X-axis   : ICRF
    Z-axis   : perpendicular to the X-Y plane in the directional (+ or -) sense
               of Earth's north pole at the reference epoch.

  Symbol meaning:

    JDTDB    Julian Day Number, Barycentric Dynamical Time
      X      X-component of position vector (km)
      Y      Y-component of position vector (km)
      Z      Z-component of position vector (km)
      VX     X-component of velocity vector (km/sec)                           
      VY     Y-component of velocity vector (km/sec)                           
      VZ     Z-component of velocity vector (km/sec)                           

ABERRATIONS AND CORRECTIONS

 Geometric state vectors have NO corrections or aberrations applied.

Computations by ...

    Solar System Dynamics Group, Horizons On-Line Ephemeris System
    4800 Oak Grove Drive, Jet Propulsion Laboratory
    Pasadena, CA  91109   USA

    General site: https://ssd.jpl.nasa.gov/
    Mailing list: https://ssd.jpl.nasa.gov/email_list.html
    System news : https://ssd.jpl.nasa.gov/horizons/news.html
    User Guide  : https://ssd.jpl.nasa.gov/horizons/manual.html
    Connect     : browser        https://ssd.jpl.nasa.gov/horizons/app.html#/x
                  API            https://ssd-api.jpl.nasa.gov/doc/horizons.html
                  command-line   telnet ssd.jpl.nasa.gov 6775
                  e-mail/batch   https://ssd.jpl.nasa.gov/ftp/ssd/hrzn_batch.txt
                  scripts        https://ssd.jpl.nasa.gov/ftp/ssd/SCRIPTS
    Author      : Jon.D.Giorgini@jpl.nasa.gov
*******************************************************************************
